[
  {
    "OBJECT_NAME": "STARLINK-1191",
    "OBJECT_ID": "20012AW",
    "EPOCH": "2025-11-11T00:49:23.739456",
    "MEAN_MOTION": 15.06402404,
    "ECCENTRICITY": 0.0001352,
    "INCLINATION": 53.0545,
    "RA_OF_ASC_NODE": 179.2836,
    "ARG_OF_PERICENTER": 87.8723,
    "MEAN_ANOMALY": 272.2421,
    "EPHEMERIS_TYPE": 0,
    "CLASSIFICATION_TYPE": "U",
    "NORAD_CAT_ID": 45222,
    "ELEMENT_SET_NO": 999,
    "REV_AT_EPOCH": 31751,
    "BSTAR": 0.00015679000000000002,
    "MEAN_MOTION_DOT": 2.055e-05,
    "MEAN_MOTION_DDOT": 0.0,
    "TLE_LINE1": "1 45222U 20012AW  25315.03430254  .00002055  00000+0  15679-3 0  9999",
    "TLE_LINE2": "2 45222  53.0545 179.2836 0001352  87.8723 272.2421 15.06402404317514",
    "COMMENT": "Grouped by shell and plane from TLE"
  },
  {
    "OBJECT_NAME": "STARLINK-1212",
    "OBJECT_ID": "20012AX",
    "EPOCH": "2025-11-11T01:16:03.096768",
    "MEAN_MOTION": 15.06402224,
    "ECCENTRICITY": 9.12e-05,
    "INCLINATION": 53.0542,
    "RA_OF_ASC_NODE": 179.8548,
    "ARG_OF_PERICENTER": 104.2374,
    "MEAN_ANOMALY": 255.8716,
    "EPHEMERIS_TYPE": 0,
    "CLASSIFICATION_TYPE": "U",
    "NORAD_CAT_ID": 45223,
    "ELEMENT_SET_NO": 999,
    "REV_AT_EPOCH": 31751,
    "BSTAR": 0.00039247,
    "MEAN_MOTION_DOT": 5.57e-05,
    "MEAN_MOTION_DDOT": 0.0,
    "TLE_LINE1": "1 45223U 20012AX  25315.05281362  .00005570  00000+0  39247-3 0  9998",
    "TLE_LINE2": "2 45223  53.0542 179.8548 0000912 104.2374 255.8716 15.06402224317519",
    "COMMENT": "Grouped by shell and plane from TLE"
  },
  {
    "OBJECT_NAME": "STARLINK-1215",
    "OBJECT_ID": "20012AZ",
    "EPOCH": "2025-11-11T00:12:11.241216",
    "MEAN_MOTION": 15.06432991,
    "ECCENTRICITY": 0.0001094,
    "INCLINATION": 53.0543,
    "RA_OF_ASC_NODE": 179.3994,
    "ARG_OF_PERICENTER": 106.8805,
    "MEAN_ANOMALY": 253.2304,
    "EPHEMERIS_TYPE": 0,
    "CLASSIFICATION_TYPE": "U",
    "NORAD_CAT_ID": 45225,
    "ELEMENT_SET_NO": 999,
    "REV_AT_EPOCH": 31746,
    "BSTAR": 0.00068966,
    "MEAN_MOTION_DOT": 0.00010015,
    "MEAN_MOTION_DDOT": 0.0,
    "TLE_LINE1": "1 45225U 20012AZ  25315.00846344  .00010015  00000+0  68966-3 0  9992",
    "TLE_LINE2": "2 45225  53.0543 179.3994 0001094 106.8805 253.2304 15.06432991317464",
    "COMMENT": "Grouped by shell and plane from TLE"
  },
  {
    "OBJECT_NAME": "STARLINK-1222",
    "OBJECT_ID": "20012BC",
    "EPOCH": "2025-11-11T01:00:00.484992",
    "MEAN_MOTION": 15.0639908,
    "ECCENTRICITY": 0.0001252,
    "INCLINATION": 53.0549,
    "RA_OF_ASC_NODE": 179.2507,
    "ARG_OF_PERICENTER": 88.0036,
    "MEAN_ANOMALY": 272.1097,
    "EPHEMERIS_TYPE": 0,
    "CLASSIFICATION_TYPE": "U",
    "NORAD_CAT_ID": 45228,
    "ELEMENT_SET_NO": 999,
    "REV_AT_EPOCH": 31740,
    "BSTAR": 0.00010211000000000001,
    "MEAN_MOTION_DOT": 1.24e-05,
    "MEAN_MOTION_DDOT": 0.0,
    "TLE_LINE1": "1 45228U 20012BC  25315.04167228  .00001240  00000+0  10211-3 0  9996",
    "TLE_LINE2": "2 45228  53.0549 179.2507 0001252  88.0036 272.1097 15.06399080317409",
    "COMMENT": "Grouped by shell and plane from TLE"
  },
  {
    "OBJECT_NAME": "STARLINK-1226",
    "OBJECT_ID": "20012BD",
    "EPOCH": "2025-11-11T01:42:28.520352",
    "MEAN_MOTION": 15.06392778,
    "ECCENTRICITY": 0.00011,
    "INCLINATION": 53.0548,
    "RA_OF_ASC_NODE": 179.1161,
    "ARG_OF_PERICENTER": 89.8665,
    "MEAN_ANOMALY": 270.245,
    "EPHEMERIS_TYPE": 0,
    "CLASSIFICATION_TYPE": "U",
    "NORAD_CAT_ID": 45229,
    "ELEMENT_SET_NO": 999,
    "REV_AT_EPOCH": 31741,
    "BSTAR": 0.00014074999999999998,
    "MEAN_MOTION_DOT": 1.815e-05,
    "MEAN_MOTION_DDOT": 0.0,
    "TLE_LINE1": "1 45229U 20012BD  25315.07116343  .00001815  00000+0  14075-3 0  9992",
    "TLE_LINE2": "2 45229  53.0548 179.1161 0001100  89.8665 270.2450 15.06392778317413",
    "COMMENT": "Grouped by shell and plane from TLE"
  },
  {
    "OBJECT_NAME": "STARLINK-1227",
    "OBJECT_ID": "20012BE",
    "EPOCH": "2025-11-11T00:01:37.838496",
    "MEAN_MOTION": 15.06392405,
    "ECCENTRICITY": 0.0001132,
    "INCLINATION": 53.0518,
    "RA_OF_ASC_NODE": 179.4323,
    "ARG_OF_PERICENTER": 91.598,
    "MEAN_ANOMALY": 268.5139,
    "EPHEMERIS_TYPE": 0,
    "CLASSIFICATION_TYPE": "U",
    "NORAD_CAT_ID": 45230,
    "ELEMENT_SET_NO": 999,
    "REV_AT_EPOCH": 31752,
    "BSTAR": 0.00016277,
    "MEAN_MOTION_DOT": 2.143e-05,
    "MEAN_MOTION_DDOT": 0.0,
    "TLE_LINE1": "1 45230U 20012BE  25315.00113239  .00002143  00000+0  16277-3 0  9999",
    "TLE_LINE2": "2 45230  53.0518 179.4323 0001132  91.5980 268.5139 15.06392405317523",
    "COMMENT": "Grouped by shell and plane from TLE"
  },
  {
    "OBJECT_NAME": "STARLINK-1270",
    "OBJECT_ID": "20012BM",
    "EPOCH": "2025-11-11T00:28:09.486336",
    "MEAN_MOTION": 15.06399091,
    "ECCENTRICITY": 0.000156,
    "INCLINATION": 53.0533,
    "RA_OF_ASC_NODE": 179.3498,
    "ARG_OF_PERICENTER": 93.5277,
    "MEAN_ANOMALY": 266.589,
    "EPHEMERIS_TYPE": 0,
    "CLASSIFICATION_TYPE": "U",
    "NORAD_CAT_ID": 45237,
    "ELEMENT_SET_NO": 999,
    "REV_AT_EPOCH": 31751,
    "BSTAR": 4.6966000000000004e-05,
    "MEAN_MOTION_DOT": 4.18e-06,
    "MEAN_MOTION_DDOT": 0.0,
    "TLE_LINE1": "1 45237U 20012BM  25315.01955424  .00000418  00000+0  46966-4 0  9999",
    "TLE_LINE2": "2 45237  53.0533 179.3498 0001560  93.5277 266.5890 15.06399091317514",
    "COMMENT": "Grouped by shell and plane from TLE"
  },
  {
    "OBJECT_NAME": "STARLINK-1646",
    "OBJECT_ID": "20062AC",
    "EPOCH": "2025-11-10T20:51:48.987072",
    "MEAN_MOTION": 15.06428021,
    "ECCENTRICITY": 0.000133,
    "INCLINATION": 53.053,
    "RA_OF_ASC_NODE": 170.0179,
    "ARG_OF_PERICENTER": 82.521,
    "MEAN_ANOMALY": 277.593,
    "EPHEMERIS_TYPE": 0,
    "CLASSIFICATION_TYPE": "U",
    "NORAD_CAT_ID": 46351,
    "ELEMENT_SET_NO": 999,
    "REV_AT_EPOCH": 28669,
    "BSTAR": 0.00045082,
    "MEAN_MOTION_DOT": 6.445e-05,
    "MEAN_MOTION_DDOT": 0.0,
    "TLE_LINE1": "1 46351U 20062AC  25314.86931698  .00006445  00000+0  45082-3 0  9994",
    "TLE_LINE2": "2 46351  53.0530 170.0179 0001330  82.5210 277.5930 15.06428021286690",
    "COMMENT": "Grouped by shell and plane from TLE"
  },
  {
    "OBJECT_NAME": "STARLINK-2045",
    "OBJECT_ID": "21005E",
    "EPOCH": "2025-11-11T06:13:09.818688",
    "MEAN_MOTION": 15.0640679,
    "ECCENTRICITY": 0.0001498,
    "INCLINATION": 53.0535,
    "RA_OF_ASC_NODE": 178.2706,
    "ARG_OF_PERICENTER": 81.7838,
    "MEAN_ANOMALY": 278.3321,
    "EPHEMERIS_TYPE": 0,
    "CLASSIFICATION_TYPE": "U",
    "NORAD_CAT_ID": 47353,
    "ELEMENT_SET_NO": 999,
    "REV_AT_EPOCH": 26596,
    "BSTAR": 0.00031196,
    "MEAN_MOTION_DOT": 4.369e-05,
    "MEAN_MOTION_DDOT": 0.0,
    "TLE_LINE1": "1 47353U 21005E   25315.25914142  .00004369  00000+0  31196-3 0  9998",
    "TLE_LINE2": "2 47353  53.0535 178.2706 0001498  81.7838 278.3321 15.06406790265965",
    "COMMENT": "Grouped by shell and plane from TLE"
  },
  {
    "OBJECT_NAME": "STARLINK-2114",
    "OBJECT_ID": "21005AW",
    "EPOCH": "2025-11-10T23:45:46.177056",
    "MEAN_MOTION": 15.06397261,
    "ECCENTRICITY": 0.0001553,
    "INCLINATION": 53.0551,
    "RA_OF_ASC_NODE": 179.8343,
    "ARG_OF_PERICENTER": 97.2329,
    "MEAN_ANOMALY": 262.8837,
    "EPHEMERIS_TYPE": 0,
    "CLASSIFICATION_TYPE": "U",
    "NORAD_CAT_ID": 47393,
    "ELEMENT_SET_NO": 999,
    "REV_AT_EPOCH": 26591,
    "BSTAR": 6.628600000000001e-05,
    "MEAN_MOTION_DOT": 7.06e-06,
    "MEAN_MOTION_DDOT": 0.0,
    "TLE_LINE1": "1 47393U 21005AW  25314.99011779  .00000706  00000+0  66286-4 0  9996",
    "TLE_LINE2": "2 47393  53.0551 179.8343 0001553  97.2329 262.8837 15.06397261265917",
    "COMMENT": "Grouped by shell and plane from TLE"
  },
  {
    "OBJECT_NAME": "STARLINK-2613",
    "OBJECT_ID": "21038A",
    "EPOCH": "2025-11-11T00:58:00.936768",
    "MEAN_MOTION": 15.0640506,
    "ECCENTRICITY": 0.0001316,
    "INCLINATION": 53.0537,
    "RA_OF_ASC_NODE": 174.2581,
    "ARG_OF_PERICENTER": 85.3632,
    "MEAN_ANOMALY": 274.7508,
    "EPHEMERIS_TYPE": 0,
    "CLASSIFICATION_TYPE": "U",
    "NORAD_CAT_ID": 48353,
    "ELEMENT_SET_NO": 999,
    "REV_AT_EPOCH": 24914,
    "BSTAR": 0.00034775,
    "MEAN_MOTION_DOT": 4.903e-05,
    "MEAN_MOTION_DDOT": 0.0,
    "TLE_LINE1": "1 48353U 21038A   25315.04028862  .00004903  00000+0  34775-3 0  9997",
    "TLE_LINE2": "2 48353  53.0537 174.2581 0001316  85.3632 274.7508 15.06405060249144",
    "COMMENT": "Grouped by shell and plane from TLE"
  },
  {
    "OBJECT_NAME": "STARLINK-2674",
    "OBJECT_ID": "21038B",
    "EPOCH": "2025-11-11T00:52:42.378240",
    "MEAN_MOTION": 15.0639363,
    "ECCENTRICITY": 0.0001326,
    "INCLINATION": 53.0521,
    "RA_OF_ASC_NODE": 174.2763,
    "ARG_OF_PERICENTER": 90.9407,
    "MEAN_ANOMALY": 269.1734,
    "EPHEMERIS_TYPE": 0,
    "CLASSIFICATION_TYPE": "U",
    "NORAD_CAT_ID": 48354,
    "ELEMENT_SET_NO": 999,
    "REV_AT_EPOCH": 24914,
    "BSTAR": 0.00022972999999999998,
    "MEAN_MOTION_DOT": 3.141e-05,
    "MEAN_MOTION_DDOT": 0.0,
    "TLE_LINE1": "1 48354U 21038B   25315.03660160  .00003141  00000+0  22973-3 0  9990",
    "TLE_LINE2": "2 48354  53.0521 174.2763 0001326  90.9407 269.1734 15.06393630249141",
    "COMMENT": "Grouped by shell and plane from TLE"
  },
  {
    "OBJECT_NAME": "STARLINK-2635",
    "OBJECT_ID": "21038C",
    "EPOCH": "2025-11-11T00:47:22.450272",
    "MEAN_MOTION": 15.06455035,
    "ECCENTRICITY": 0.0001326,
    "INCLINATION": 53.0536,
    "RA_OF_ASC_NODE": 174.2853,
    "ARG_OF_PERICENTER": 98.133,
    "MEAN_ANOMALY": 261.9809,
    "EPHEMERIS_TYPE": 0,
    "CLASSIFICATION_TYPE": "U",
    "NORAD_CAT_ID": 48355,
    "ELEMENT_SET_NO": 999,
    "REV_AT_EPOCH": 24914,
    "BSTAR": 0.0011133,
    "MEAN_MOTION_DOT": 0.00016365,
    "MEAN_MOTION_DDOT": 0.0,
    "TLE_LINE1": "1 48355U 21038C   25315.03289873  .00016365  00000+0  11133-2 0  9996",
    "TLE_LINE2": "2 48355  53.0536 174.2853 0001326  98.1330 261.9809 15.06455035249144",
    "COMMENT": "Grouped by shell and plane from TLE"
  }
]